2 25544  51.6416 247.4627 0006703 130.5360 325.0288 15.72125391563537
